[{"OBJECT_NAME":"SITRO-AIS 5 (KATYS)","OBJECT_ID":"2023-091L","EPOCH":"2026-03-09T22:36:44.932608","MEAN_MOTION":15.27079182,"ECCENTRICITY":0.00133776,"INCLINATION":97.5176,"RA_OF_ASC_NODE":132.0172,"ARG_OF_PERICENTER":94.5677,"MEAN_ANOMALY":265.709,"EPHEMERIS_TYPE":0,"CLASSIFICATION_TYPE":"U","NORAD_CAT_ID":57176,"ELEMENT_SET_NO":999,"REV_AT_EPOCH":14918,"BSTAR":0.00057530772,"MEAN_MOTION_DOT":0.00015262,"MEAN_MOTION_DDOT":0},{"OBJECT_NAME":"STARLINK-34482","OBJECT_ID":"2025-147AD","EPOCH":"2026-03-09T18:07:05.316960","MEAN_MOTION":15.30234539,"ECCENTRICITY":8.885e-5,"INCLINATION":53.1587,"RA_OF_ASC_NODE":242.3034,"ARG_OF_PERICENTER":71.6135,"MEAN_ANOMALY":288.4962,"EPHEMERIS_TYPE":0,"CLASSIFICATION_TYPE":"U","NORAD_CAT_ID":64782,"ELEMENT_SET_NO":999,"REV_AT_EPOCH":3880,"BSTAR":0.00088132818,"MEAN_MOTION_DOT":0.00025862,"MEAN_MOTION_DDOT":0}]
